SL-3 R/B                
1 19046U 88032B   26090.85151236  .00006608  00000+0  30576-3 0  9992
2 19046  97.5213  74.0317 0026671 153.0572 207.2054 15.20156977 55470
SL-16 R/B               
1 19120U 88039B   26090.89416872  .00000068  00000+0  54832-4 0  9992
2 19120  71.0172  21.5954 0023740 302.5935  57.2897 14.19620227961538
COSMOS 1953             
1 19210U 88050A   26090.16108971  .00008988  00000+0  31871-3 0  9999
2 19210  82.5073 136.6473 0012214  55.6435 304.5958 15.28860160 41060
SL-8 R/B                
1 19257U 88053B   26090.71736992  .00000408  00000+0  14075-3 0  9990
2 19257  74.0461  71.8585 0021411 248.2273 284.8247 14.38931655979767
COSMOS 1975             
1 19573U 88093A   26090.72535839  .00008877  00000+0  31929-3 0  9998
2 19573  82.5154  95.5539 0013389  93.7039 266.5731 15.28379459 22774
SL-14 R/B               
1 19574U 88093B   26090.88885816  .00000710  00000+0  78832-4 0  9992
2 19574  82.5343  21.2085 0019848 328.6618  95.9420 14.85683524  4318
SL-16 R/B               
1 19650U 88102B   26090.44853971  .00000044  00000+0  46463-4 0  9992
2 19650  70.9970 105.7134 0015228 329.4256  30.5978 14.16153588929975
INTERCOSMOS 24          
1 20261U 89080A   26090.72587283  .00000613  00000+0  18110-3 0  9998
2 20261  82.6014  90.0497 1186921 241.6271 106.0225 12.59586061669576
SL-14 R/B               
1 20262U 89080C   26090.48078088  .00000487  00000+0  13785-3 0  9992
2 20262  82.5951 159.2034 1230903 134.9651 235.8177 12.50514838662874
DELTA 1 R/B             
1 20323U 89089B   26090.55497846  .00000479  00000+0  12690-3 0  9999
2 20323  97.0689 294.5129 0070363  54.2402 306.5312 14.50681580898901
ARIANE 40 R/B           
1 20443U 90005H   26090.42516231  .00000359  00000+0  12766-3 0  9999
2 20443  98.3038 150.4341 0011100 135.3902 224.8182 14.39884987895932
DELTA 2 R/B(1)          
1 20453U 90008B   26090.87499801  .00070872  00000+0  75838-3 0  9991
2 20453  35.6042  28.9373 0076971 107.0772 253.8413 15.58979232929593
