CCSDS_OMM_VERS = 2.0
CREATION_DATE  = 
ORIGINATOR     = 

OBJECT_NAME    = SL-3 R/B
OBJECT_ID      = 1988-032B
CENTER_NAME    = EARTH
REF_FRAME      = TEME
TIME_SYSTEM    = UTC
MEAN_ELEMENT_THEORY = SGP/SGP4

EPOCH          = 2026-03-31T20:26:10.667904
MEAN_MOTION    = 15.20156977
ECCENTRICITY   = .0026671
INCLINATION    = 97.5213
RA_OF_ASC_NODE = 74.0317
ARG_OF_PERICENTER = 153.0572
MEAN_ANOMALY   = 207.2054

EPHEMERIS_TYPE = 0
CLASSIFICATION_TYPE = U
NORAD_CAT_ID   = 19046
ELEMENT_SET_NO = 999
REV_AT_EPOCH   = 5547
BSTAR          = .30576E-3
MEAN_MOTION_DOT = .6608E-4
MEAN_MOTION_DDOT = 0

CCSDS_OMM_VERS = 2.0
CREATION_DATE  = 
ORIGINATOR     = 

OBJECT_NAME    = SL-16 R/B
OBJECT_ID      = 1988-039B
CENTER_NAME    = EARTH
REF_FRAME      = TEME
TIME_SYSTEM    = UTC
MEAN_ELEMENT_THEORY = SGP/SGP4

EPOCH          = 2026-03-31T21:27:36.177408
MEAN_MOTION    = 14.19620227
ECCENTRICITY   = .002374
INCLINATION    = 71.0172
RA_OF_ASC_NODE = 21.5954
ARG_OF_PERICENTER = 302.5935
MEAN_ANOMALY   = 57.2897

EPHEMERIS_TYPE = 0
CLASSIFICATION_TYPE = U
NORAD_CAT_ID   = 19120
ELEMENT_SET_NO = 999
REV_AT_EPOCH   = 96153
BSTAR          = .54832E-4
MEAN_MOTION_DOT = .68E-6
MEAN_MOTION_DDOT = 0

CCSDS_OMM_VERS = 2.0
CREATION_DATE  = 
ORIGINATOR     = 

OBJECT_NAME    = COSMOS 1953
OBJECT_ID      = 1988-050A
CENTER_NAME    = EARTH
REF_FRAME      = TEME
TIME_SYSTEM    = UTC
MEAN_ELEMENT_THEORY = SGP/SGP4

EPOCH          = 2026-03-31T03:51:58.150944
MEAN_MOTION    = 15.28860160
ECCENTRICITY   = .0012214
INCLINATION    = 82.5073
RA_OF_ASC_NODE = 136.6473
ARG_OF_PERICENTER = 55.6435
MEAN_ANOMALY   = 304.5958

EPHEMERIS_TYPE = 0
CLASSIFICATION_TYPE = U
NORAD_CAT_ID   = 19210
ELEMENT_SET_NO = 999
REV_AT_EPOCH   = 4106
BSTAR          = .31871E-3
MEAN_MOTION_DOT = .8988E-4
MEAN_MOTION_DDOT = 0

CCSDS_OMM_VERS = 2.0
CREATION_DATE  = 
ORIGINATOR     = 

OBJECT_NAME    = SL-8 R/B
OBJECT_ID      = 1988-053B
CENTER_NAME    = EARTH
REF_FRAME      = TEME
TIME_SYSTEM    = UTC
MEAN_ELEMENT_THEORY = SGP/SGP4

EPOCH          = 2026-03-31T17:13:00.761088
MEAN_MOTION    = 14.38931655
ECCENTRICITY   = .0021411
INCLINATION    = 74.0461
RA_OF_ASC_NODE = 71.8585
ARG_OF_PERICENTER = 248.2273
MEAN_ANOMALY   = 284.8247

EPHEMERIS_TYPE = 0
CLASSIFICATION_TYPE = U
NORAD_CAT_ID   = 19257
ELEMENT_SET_NO = 999
REV_AT_EPOCH   = 97976
BSTAR          = .14075E-3
MEAN_MOTION_DOT = .408E-5
MEAN_MOTION_DDOT = 0

CCSDS_OMM_VERS = 2.0
CREATION_DATE  = 
ORIGINATOR     = 

OBJECT_NAME    = COSMOS 1975
OBJECT_ID      = 1988-093A
CENTER_NAME    = EARTH
REF_FRAME      = TEME
TIME_SYSTEM    = UTC
MEAN_ELEMENT_THEORY = SGP/SGP4

EPOCH          = 2026-03-31T17:24:30.964896
MEAN_MOTION    = 15.28379459
ECCENTRICITY   = .0013389
INCLINATION    = 82.5154
RA_OF_ASC_NODE = 95.5539
ARG_OF_PERICENTER = 93.7039
MEAN_ANOMALY   = 266.5731

EPHEMERIS_TYPE = 0
CLASSIFICATION_TYPE = U
NORAD_CAT_ID   = 19573
ELEMENT_SET_NO = 999
REV_AT_EPOCH   = 2277
BSTAR          = .31929E-3
MEAN_MOTION_DOT = .8877E-4
MEAN_MOTION_DDOT = 0

CCSDS_OMM_VERS = 2.0
CREATION_DATE  = 
ORIGINATOR     = 

OBJECT_NAME    = SL-14 R/B
OBJECT_ID      = 1988-093B
CENTER_NAME    = EARTH
REF_FRAME      = TEME
TIME_SYSTEM    = UTC
MEAN_ELEMENT_THEORY = SGP/SGP4

EPOCH          = 2026-03-31T21:19:57.345024
MEAN_MOTION    = 14.85683524
ECCENTRICITY   = .0019848
INCLINATION    = 82.5343
RA_OF_ASC_NODE = 21.2085
ARG_OF_PERICENTER = 328.6618
MEAN_ANOMALY   = 95.9420

EPHEMERIS_TYPE = 0
CLASSIFICATION_TYPE = U
NORAD_CAT_ID   = 19574
ELEMENT_SET_NO = 999
REV_AT_EPOCH   = 431
BSTAR          = .78832E-4
MEAN_MOTION_DOT = .71E-5
MEAN_MOTION_DDOT = 0

CCSDS_OMM_VERS = 2.0
CREATION_DATE  = 
ORIGINATOR     = 

OBJECT_NAME    = SL-16 R/B
OBJECT_ID      = 1988-102B
CENTER_NAME    = EARTH
REF_FRAME      = TEME
TIME_SYSTEM    = UTC
MEAN_ELEMENT_THEORY = SGP/SGP4

EPOCH          = 2026-03-31T10:45:53.830944
MEAN_MOTION    = 14.16153588
ECCENTRICITY   = .00152281
INCLINATION    = 70.9970
RA_OF_ASC_NODE = 105.7134
ARG_OF_PERICENTER = 329.4256
MEAN_ANOMALY   = 30.5978

EPHEMERIS_TYPE = 0
CLASSIFICATION_TYPE = U
NORAD_CAT_ID   = 19650
ELEMENT_SET_NO = 999
REV_AT_EPOCH   = 92997
BSTAR          = .4646294E-4
MEAN_MOTION_DOT = .44E-6
MEAN_MOTION_DDOT = 0

CCSDS_OMM_VERS = 2.0
CREATION_DATE  = 
ORIGINATOR     = 

OBJECT_NAME    = INTERCOSMOS 24
OBJECT_ID      = 1989-080A
CENTER_NAME    = EARTH
REF_FRAME      = TEME
TIME_SYSTEM    = UTC
MEAN_ELEMENT_THEORY = SGP/SGP4

EPOCH          = 2026-03-31T17:25:15.412512
MEAN_MOTION    = 12.59586061
ECCENTRICITY   = .1186921
INCLINATION    = 82.6014
RA_OF_ASC_NODE = 90.0497
ARG_OF_PERICENTER = 241.6271
MEAN_ANOMALY   = 106.0225

EPHEMERIS_TYPE = 0
CLASSIFICATION_TYPE = U
NORAD_CAT_ID   = 20261
ELEMENT_SET_NO = 999
REV_AT_EPOCH   = 66957
BSTAR          = .1811E-3
MEAN_MOTION_DOT = .613E-5
MEAN_MOTION_DDOT = 0

CCSDS_OMM_VERS = 2.0
CREATION_DATE  = 
ORIGINATOR     = 

OBJECT_NAME    = SL-14 R/B
OBJECT_ID      = 1989-080C
CENTER_NAME    = EARTH
REF_FRAME      = TEME
TIME_SYSTEM    = UTC
MEAN_ELEMENT_THEORY = SGP/SGP4

EPOCH          = 2026-03-31T11:32:19.468032
MEAN_MOTION    = 12.50514838
ECCENTRICITY   = .12309031
INCLINATION    = 82.5951
RA_OF_ASC_NODE = 159.2034
ARG_OF_PERICENTER = 134.9651
MEAN_ANOMALY   = 235.8177

EPHEMERIS_TYPE = 0
CLASSIFICATION_TYPE = U
NORAD_CAT_ID   = 20262
ELEMENT_SET_NO = 999
REV_AT_EPOCH   = 66287
BSTAR          = .13785231E-3
MEAN_MOTION_DOT = .487E-5
MEAN_MOTION_DDOT = 0

CCSDS_OMM_VERS = 2.0
CREATION_DATE  = 
ORIGINATOR     = 

OBJECT_NAME    = DELTA 1 R/B
OBJECT_ID      = 1989-089B
CENTER_NAME    = EARTH
REF_FRAME      = TEME
TIME_SYSTEM    = UTC
MEAN_ELEMENT_THEORY = SGP/SGP4

EPOCH          = 2026-03-31T13:19:10.138944
MEAN_MOTION    = 14.50681580
ECCENTRICITY   = .00703637
INCLINATION    = 97.0689
RA_OF_ASC_NODE = 294.5129
ARG_OF_PERICENTER = 54.2402
MEAN_ANOMALY   = 306.5312

EPHEMERIS_TYPE = 0
CLASSIFICATION_TYPE = U
NORAD_CAT_ID   = 20323
ELEMENT_SET_NO = 999
REV_AT_EPOCH   = 89890
BSTAR          = .12689547E-3
MEAN_MOTION_DOT = .479E-5
MEAN_MOTION_DDOT = 0

CCSDS_OMM_VERS = 2.0
CREATION_DATE  = 
ORIGINATOR     = 

OBJECT_NAME    = ARIANE 40 R/B
OBJECT_ID      = 1990-005H
CENTER_NAME    = EARTH
REF_FRAME      = TEME
TIME_SYSTEM    = UTC
MEAN_ELEMENT_THEORY = SGP/SGP4

EPOCH          = 2026-03-31T10:12:14.023584
MEAN_MOTION    = 14.39884987
ECCENTRICITY   = .00111009
INCLINATION    = 98.3038
RA_OF_ASC_NODE = 150.4341
ARG_OF_PERICENTER = 135.3902
MEAN_ANOMALY   = 224.8182

EPHEMERIS_TYPE = 0
CLASSIFICATION_TYPE = U
NORAD_CAT_ID   = 20443
ELEMENT_SET_NO = 999
REV_AT_EPOCH   = 89593
BSTAR          = .12766233E-3
MEAN_MOTION_DOT = .359E-5
MEAN_MOTION_DDOT = 0

CCSDS_OMM_VERS = 2.0
CREATION_DATE  = 
ORIGINATOR     = 

OBJECT_NAME    = DELTA 2 R/B(1)
OBJECT_ID      = 1990-008B
CENTER_NAME    = EARTH
REF_FRAME      = TEME
TIME_SYSTEM    = UTC
MEAN_ELEMENT_THEORY = SGP/SGP4

EPOCH          = 2026-03-31T20:59:59.828064
MEAN_MOTION    = 15.58979232
ECCENTRICITY   = .0076971
INCLINATION    = 35.6042
RA_OF_ASC_NODE = 28.9373
ARG_OF_PERICENTER = 107.0772
MEAN_ANOMALY   = 253.8413

EPHEMERIS_TYPE = 0
CLASSIFICATION_TYPE = U
NORAD_CAT_ID   = 20453
ELEMENT_SET_NO = 999
REV_AT_EPOCH   = 92959
BSTAR          = .75838E-3
MEAN_MOTION_DOT = .70872E-3
MEAN_MOTION_DDOT = 0

